[
    {
        "CCSDS_OMM_VERS": "3.0",
        "COMMENT": "GENERATED VIA SPACE-TRACK.ORG API",
        "CREATION_DATE": "2025-04-14T06:26:32",
        "ORIGINATOR": "18 SPCS",
        "OBJECT_NAME": "COSMOS 2529 (GLONASS)",
        "OBJECT_ID": "2018-086A",
        "CENTER_NAME": "EARTH",
        "REF_FRAME": "TEME",
        "TIME_SYSTEM": "UTC",
        "MEAN_ELEMENT_THEORY": "SGP4",
        "EPOCH": "2025-04-13T19:25:05.404512",
        "MEAN_MOTION": "2.13102107",
        "ECCENTRICITY": "0.00093200",
        "INCLINATION": "64.2927",
        "RA_OF_ASC_NODE": "207.0974",
        "ARG_OF_PERICENTER": "257.0665",
        "MEAN_ANOMALY": "102.8478",
        "EPHEMERIS_TYPE": "0",
        "CLASSIFICATION_TYPE": "U",
        "NORAD_CAT_ID": "43687",
        "ELEMENT_SET_NO": "999",
        "REV_AT_EPOCH": "5013",
        "BSTAR": "0.00000000000000",
        "MEAN_MOTION_DOT": "0.00000015",
        "MEAN_MOTION_DDOT": "0.0000000000000",
        "SEMIMAJOR_AXIS": "25508.016",
        "PERIOD": "675.732",
        "APOAPSIS": "19153.654",
        "PERIAPSIS": "19106.107",
        "OBJECT_TYPE": "PAYLOAD",
        "RCS_SIZE": "LARGE",
        "COUNTRY_CODE": "CIS",
        "LAUNCH_DATE": "2018-11-03",
        "SITE": "PKMTR",
        "DECAY_DATE": null,
        "FILE": "4701280",
        "GP_ID": "285552390",
        "TLE_LINE0": "0 COSMOS 2529 (GLONASS)",
        "TLE_LINE1": "1 43687U 18086A   25103.80909033  .00000015  00000-0  00000+0 0  9999",
        "TLE_LINE2": "2 43687  64.2927 207.0974 0009320 257.0665 102.8478  2.13102107 50130"
    }
]